{"fetched_at":"2026-07-15T17:47:18.005Z","source":"https://celestrak.org/NORAD/elements/gp.php?NAME=JILIN&FORMAT=JSON","constellation":"jilin-1-gaofen","records":[{"OBJECT_NAME":"JILIN-1 GAOFEN 3A","OBJECT_ID":"2019-032C","EPOCH":"2026-07-15T04:07:03.514080","CLASSIFICATION_TYPE":"U","MEAN_MOTION":15.33189535,"ECCENTRICITY":0.0004748,"INCLINATION":44.9722,"RA_OF_ASC_NODE":202.8517,"ARG_OF_PERICENTER":103.9514,"MEAN_ANOMALY":256.1899,"EPHEMERIS_TYPE":0,"NORAD_CAT_ID":44312,"ELEMENT_SET_NO":999,"REV_AT_EPOCH":39213,"BSTAR":0.00018817,"MEAN_MOTION_DOT":0.00005844,"MEAN_MOTION_DDOT":0},{"OBJECT_NAME":"JILIN-1 GAOFEN 2A","OBJECT_ID":"2019-075A","EPOCH":"2026-07-15T05:03:59.135040","CLASSIFICATION_TYPE":"U","MEAN_MOTION":15.4001456,"ECCENTRICITY":0.0005181,"INCLINATION":97.4967,"RA_OF_ASC_NODE":280.6692,"ARG_OF_PERICENTER":354.9233,"MEAN_ANOMALY":5.1959,"EPHEMERIS_TYPE":0,"NORAD_CAT_ID":44777,"ELEMENT_SET_NO":999,"REV_AT_EPOCH":36919,"BSTAR":0.00019879,"MEAN_MOTION_DOT":0.00007851,"MEAN_MOTION_DDOT":0},{"OBJECT_NAME":"JILIN-1 GAOFEN 2B","OBJECT_ID":"2019-086A","EPOCH":"2026-07-15T04:12:47.520864","CLASSIFICATION_TYPE":"U","MEAN_MOTION":15.20999096,"ECCENTRICITY":0.0013239,"INCLINATION":97.4874,"RA_OF_ASC_NODE":267.9946,"ARG_OF_PERICENTER":215.8866,"MEAN_ANOMALY":144.1481,"EPHEMERIS_TYPE":0,"NORAD_CAT_ID":44836,"ELEMENT_SET_NO":999,"REV_AT_EPOCH":36474,"BSTAR":0.00014444,"MEAN_MOTION_DOT":0.00003138,"MEAN_MOTION_DDOT":0},{"OBJECT_NAME":"JILIN-1 GAOFEN 3E","OBJECT_ID":"2020-065D","EPOCH":"2026-07-15T03:44:56.459328","CLASSIFICATION_TYPE":"U","MEAN_MOTION":15.67225913,"ECCENTRICITY":0.0010235,"INCLINATION":97.221,"RA_OF_ASC_NODE":249.4796,"ARG_OF_PERICENTER":72.3027,"MEAN_ANOMALY":287.9351,"EPHEMERIS_TYPE":0,"NORAD_CAT_ID":46457,"ELEMENT_SET_NO":999,"REV_AT_EPOCH":32413,"BSTAR":0.00044669,"MEAN_MOTION_DOT":0.00048069,"MEAN_MOTION_DDOT":0},{"OBJECT_NAME":"JILIN-1 GAOFEN 3F","OBJECT_ID":"2020-065E","EPOCH":"2026-07-15T04:05:50.202816","CLASSIFICATION_TYPE":"U","MEAN_MOTION":15.63940618,"ECCENTRICITY":0.001158,"INCLINATION":97.2165,"RA_OF_ASC_NODE":246.6855,"ARG_OF_PERICENTER":58.2524,"MEAN_ANOMALY":301.9863,"EPHEMERIS_TYPE":0,"NORAD_CAT_ID":46458,"ELEMENT_SET_NO":999,"REV_AT_EPOCH":32407,"BSTAR":0.00043528,"MEAN_MOTION_DOT":0.00041088,"MEAN_MOTION_DDOT":0},{"OBJECT_NAME":"JILIN-1 GAOFEN 3G","OBJECT_ID":"2020-065F","EPOCH":"2026-07-15T04:25:02.224128","CLASSIFICATION_TYPE":"U","MEAN_MOTION":15.76924985,"ECCENTRICITY":0.0005315,"INCLINATION":97.222,"RA_OF_ASC_NODE":254.0217,"ARG_OF_PERICENTER":273.299,"MEAN_ANOMALY":86.7668,"EPHEMERIS_TYPE":0,"NORAD_CAT_ID":46459,"ELEMENT_SET_NO":999,"REV_AT_EPOCH":32434,"BSTAR":0.00052267,"MEAN_MOTION_DOT":0.00084854,"MEAN_MOTION_DDOT":0},{"OBJECT_NAME":"JILIN-1 GAOFEN 3H","OBJECT_ID":"2020-065G","EPOCH":"2026-07-15T03:55:58.068192","CLASSIFICATION_TYPE":"U","MEAN_MOTION":15.72267157,"ECCENTRICITY":0.0006452,"INCLINATION":97.217,"RA_OF_ASC_NODE":250.1356,"ARG_OF_PERICENTER":202.4058,"MEAN_ANOMALY":157.6924,"EPHEMERIS_TYPE":0,"NORAD_CAT_ID":46460,"ELEMENT_SET_NO":999,"REV_AT_EPOCH":32427,"BSTAR":0.00049532,"MEAN_MOTION_DOT":0.00065667,"MEAN_MOTION_DDOT":0},{"OBJECT_NAME":"JILIN-1 GAOFEN 2D","OBJECT_ID":"2021-086A","EPOCH":"2026-07-15T04:14:33.900000","CLASSIFICATION_TYPE":"U","MEAN_MOTION":15.10864736,"ECCENTRICITY":0.0034051,"INCLINATION":97.6508,"RA_OF_ASC_NODE":318.8826,"ARG_OF_PERICENTER":50.7343,"MEAN_ANOMALY":309.6899,"EPHEMERIS_TYPE":0,"NORAD_CAT_ID":49256,"ELEMENT_SET_NO":999,"REV_AT_EPOCH":26494,"BSTAR":0.00011925,"MEAN_MOTION_DOT":0.00001943,"MEAN_MOTION_DDOT":0},{"OBJECT_NAME":"JILIN-1 GAOFEN 2F","OBJECT_ID":"2021-097A","EPOCH":"2026-07-15T04:08:07.285056","CLASSIFICATION_TYPE":"U","MEAN_MOTION":15.07946687,"ECCENTRICITY":0.0019735,"INCLINATION":97.6731,"RA_OF_ASC_NODE":322.31,"ARG_OF_PERICENTER":129.9309,"MEAN_ANOMALY":230.3657,"EPHEMERIS_TYPE":0,"NORAD_CAT_ID":49338,"ELEMENT_SET_NO":999,"REV_AT_EPOCH":26053,"BSTAR":0.00016975,"MEAN_MOTION_DOT":0.00002554,"MEAN_MOTION_DDOT":0},{"OBJECT_NAME":"JILIN-1 GAOFEN 3D27","OBJECT_ID":"2022-048B","EPOCH":"2026-07-15T03:58:36.657984","CLASSIFICATION_TYPE":"U","MEAN_MOTION":15.83061424,"ECCENTRICITY":0.0005256,"INCLINATION":97.573,"RA_OF_ASC_NODE":312.804,"ARG_OF_PERICENTER":243.3562,"MEAN_ANOMALY":116.7168,"EPHEMERIS_TYPE":0,"NORAD_CAT_ID":52444,"ELEMENT_SET_NO":999,"REV_AT_EPOCH":23389,"BSTAR":0.00062935,"MEAN_MOTION_DOT":0.00135777,"MEAN_MOTION_DDOT":0},{"OBJECT_NAME":"JILIN-1 GAOFEN 3D28","OBJECT_ID":"2022-048C","EPOCH":"2026-07-15T03:49:33.945024","CLASSIFICATION_TYPE":"U","MEAN_MOTION":15.88093367,"ECCENTRICITY":0.0005007,"INCLINATION":97.5663,"RA_OF_ASC_NODE":313.0986,"ARG_OF_PERICENTER":241.8492,"MEAN_ANOMALY":118.2274,"EPHEMERIS_TYPE":0,"NORAD_CAT_ID":52445,"ELEMENT_SET_NO":999,"REV_AT_EPOCH":23395,"BSTAR":0.00068582,"MEAN_MOTION_DOT":0.00189469,"MEAN_MOTION_DDOT":0},{"OBJECT_NAME":"JILIN-1 GAOFEN 3D29","OBJECT_ID":"2022-048D","EPOCH":"2026-07-15T03:36:54.571104","CLASSIFICATION_TYPE":"U","MEAN_MOTION":15.83271368,"ECCENTRICITY":0.0004507,"INCLINATION":97.573,"RA_OF_ASC_NODE":313.1532,"ARG_OF_PERICENTER":227.2004,"MEAN_ANOMALY":132.8887,"EPHEMERIS_TYPE":0,"NORAD_CAT_ID":52446,"ELEMENT_SET_NO":999,"REV_AT_EPOCH":23391,"BSTAR":0.00062228,"MEAN_MOTION_DOT":0.00135539,"MEAN_MOTION_DDOT":0},{"OBJECT_NAME":"JILIN-1 GAOFEN 3D31","OBJECT_ID":"2022-048F","EPOCH":"2026-07-15T04:18:19.084320","CLASSIFICATION_TYPE":"U","MEAN_MOTION":15.93982084,"ECCENTRICITY":0.000559,"INCLINATION":97.5702,"RA_OF_ASC_NODE":314.5336,"ARG_OF_PERICENTER":241.5535,"MEAN_ANOMALY":118.5177,"EPHEMERIS_TYPE":0,"NORAD_CAT_ID":52448,"ELEMENT_SET_NO":999,"REV_AT_EPOCH":23402,"BSTAR":0.0007513,"MEAN_MOTION_DOT":0.00273861,"MEAN_MOTION_DDOT":0.000030974},{"OBJECT_NAME":"JILIN-1 GAOFEN 03D09","OBJECT_ID":"2022-098B","EPOCH":"2026-07-15T05:17:10.602240","CLASSIFICATION_TYPE":"U","MEAN_MOTION":15.70255485,"ECCENTRICITY":0.0003484,"INCLINATION":97.5633,"RA_OF_ASC_NODE":328.0763,"ARG_OF_PERICENTER":232.1789,"MEAN_ANOMALY":127.9157,"EPHEMERIS_TYPE":0,"NORAD_CAT_ID":53445,"ELEMENT_SET_NO":999,"REV_AT_EPOCH":21902,"BSTAR":0.00047284,"MEAN_MOTION_DOT":0.00057521,"MEAN_MOTION_DDOT":0},{"OBJECT_NAME":"JILIN-1 GAOFEN 03D43","OBJECT_ID":"2022-098E","EPOCH":"2026-07-15T04:42:31.744800","CLASSIFICATION_TYPE":"U","MEAN_MOTION":15.74007921,"ECCENTRICITY":0.0003713,"INCLINATION":97.5616,"RA_OF_ASC_NODE":329.211,"ARG_OF_PERICENTER":227.4865,"MEAN_ANOMALY":132.6086,"EPHEMERIS_TYPE":0,"NORAD_CAT_ID":53448,"ELEMENT_SET_NO":999,"REV_AT_EPOCH":21909,"BSTAR":0.00048527,"MEAN_MOTION_DOT":0.00069247,"MEAN_MOTION_DDOT":0},{"OBJECT_NAME":"JILIN-1 GAOFEN 03D08","OBJECT_ID":"2022-155A","EPOCH":"2026-07-15T05:09:47.671776","CLASSIFICATION_TYPE":"U","MEAN_MOTION":15.67552999,"ECCENTRICITY":0.0004285,"INCLINATION":97.6236,"RA_OF_ASC_NODE":343.9245,"ARG_OF_PERICENTER":227.6596,"MEAN_ANOMALY":132.4302,"EPHEMERIS_TYPE":0,"NORAD_CAT_ID":54251,"ELEMENT_SET_NO":999,"REV_AT_EPOCH":20420,"BSTAR":0.00041015,"MEAN_MOTION_DOT":0.0004459,"MEAN_MOTION_DDOT":0}]}
