JILIN-1 GAOFEN 3A       
1 44312U 19032C   26196.17156845  .00005844  00000+0  18817-3 0  9998
2 44312  44.9722 202.8517 0004748 103.9514 256.1899 15.33189535392136
JILIN-1 GAOFEN 2A       
1 44777U 19075A   26196.21110110  .00007851  00000+0  19879-3 0  9999
2 44777  97.4967 280.6692 0005181 354.9233   5.1959 15.40014560369193
JILIN-1 GAOFEN 2B       
1 44836U 19086A   26196.17555001  .00003138  00000+0  14444-3 0  9991
2 44836  97.4874 267.9946 0013239 215.8866 144.1481 15.20999096364740
JILIN-1 GAOFEN 3E       
1 46457U 20065D   26196.15620902  .00048069  00000+0  44669-3 0  9996
2 46457  97.2210 249.4796 0010235  72.3027 287.9351 15.67225913324131
JILIN-1 GAOFEN 3F       
1 46458U 20065E   26196.17071994  .00041088  00000+0  43528-3 0  9997
2 46458  97.2165 246.6855 0011580  58.2524 301.9863 15.63940618324075
JILIN-1 GAOFEN 3G       
1 46459U 20065F   26196.18405352  .00084854  00000+0  52267-3 0  9996
2 46459  97.2220 254.0217 0005315 273.2990  86.7668 15.76924985324342
JILIN-1 GAOFEN 3H       
1 46460U 20065G   26196.16386653  .00065667  00000+0  49532-3 0  9990
2 46460  97.2170 250.1356 0006452 202.4058 157.6924 15.72267157324273
JILIN-1 GAOFEN 2D       
1 49256U 21086A   26196.17678125  .00001943  00000+0  11925-3 0  9991
2 49256  97.6508 318.8826 0034051  50.7343 309.6899 15.10864736264944
JILIN-1 GAOFEN 2F       
1 49338U 21097A   26196.17230654  .00002554  00000+0  16975-3 0  9994
2 49338  97.6731 322.3100 0019735 129.9309 230.3657 15.07946687260536
JILIN-1 GAOFEN 3D27     
1 52444U 22048B   26196.16570206  .00135777  00000+0  62935-3 0  9993
2 52444  97.5730 312.8040 0005256 243.3562 116.7168 15.83061424233892
JILIN-1 GAOFEN 3D28     
1 52445U 22048C   26196.15942066  .00189469  00000+0  68582-3 0  9991
2 52445  97.5663 313.0986 0005007 241.8492 118.2274 15.88093367233957
JILIN-1 GAOFEN 3D29     
1 52446U 22048D   26196.15063161  .00135539  00000+0  62228-3 0  9992
2 52446  97.5730 313.1532 0004507 227.2004 132.8887 15.83271368233914
JILIN-1 GAOFEN 3D31     
1 52448U 22048F   26196.17938755  .00273861  30974-4  75130-3 0  9991
2 52448  97.5702 314.5336 0005590 241.5535 118.5177 15.93982084234024
JILIN-1 GAOFEN 03D09    
1 53445U 22098B   26196.22026160  .00057521  00000+0  47284-3 0  9992
2 53445  97.5633 328.0763 0003484 232.1789 127.9157 15.70255485219024
JILIN-1 GAOFEN 03D43    
1 53448U 22098E   26196.19620075  .00069247  00000+0  48527-3 0  9995
2 53448  97.5616 329.2110 0003713 227.4865 132.6086 15.74007921219099
JILIN-1 GAOFEN 03D08    
1 54251U 22155A   26196.21513509  .00044590  00000+0  41015-3 0  9997
2 54251  97.6236 343.9245 0004285 227.6596 132.4302 15.67552999204209
